ip,type,location,city,country,latitude,longitude,provider,asset_id,team_id
10.0.0.1,private,aws-us-east-1,Ashburn,United States,39.0438,-77.4874,intranet,AWS97611,OPS123
10.0.0.100,private,aws-us-east-1,Ashburn,United States,39.0438,-77.4874,intranet,AWS37865,BIZ789
10.0.0.2,private,aws-us-east-1,Ashburn,United States,39.0438,-77.4874,intranet,AWS73658,OPS123
10.0.0.3,private,aws-us-east-1,Ashburn,United States,39.0438,-77.4874,intranet,AWS10590,OPS789
10.0.0.8,private,aws-us-east-1,Ashburn,United States,39.0438,-77.4874,intranet,AWS34747,BIZ123
10.0.0.9,private,aws-us-east-1,Ashburn,United States,39.0438,-77.4874,intranet,AWS90812,BIZ123
10.0.1.108,private,aws-us-east-1,Ashburn,United States,39.0438,-77.4874,intranet,AWS77330,BIZ123
10.0.2.15,private,aws-us-east-1,Ashburn,United States,39.0438,-77.4874,intranet,AWS38681,BIZ456
10.0.218.174,private,aws-us-east-1,Ashburn,United States,39.0438,-77.4874,intranet,AWS70353,BIZ789
10.0.72.113,private,aws-us-east-1,Ashburn,United States,39.0438,-77.4874,intranet,AWS46127,OPS789
10.0.72.139,private,aws-us-east-1,Ashburn,United States,39.0438,-77.4874,intranet,AWS41904,DEV456
10.0.72.146,private,aws-us-east-1,Ashburn,United States,39.0438,-77.4874,intranet,AWS51498,OPS789
10.0.72.152,private,aws-us-east-1,Ashburn,United States,39.0438,-77.4874,intranet,AWS94057,OPS789
10.1.11.1,private,aws-us-east-1,Ashburn,United States,39.0438,-77.4874,intranet,AWS75190,DEV789
10.1.11.101,private,aws-us-east-1,Ashburn,United States,39.0438,-77.4874,intranet,AWS43246,BIZ456
10.1.11.101,private,aws-us-east-1,Ashburn,United States,39.0438,-77.4874,intranet,AWS28106,OPS456
10.1.50.14,private,aws-us-east-1,Ashburn,United States,39.0438,-77.4874,intranet,AWS59793,BIZ789
10.1.53.21,private,aws-us-east-1,Ashburn,United States,39.0438,-77.4874,intranet,AWS13506,BIZ123
10.1.70.4,private,aws-us-east-1,Ashburn,United States,39.0438,-77.4874,intranet,AWS65210,DEV789
10.1.70.52,private,aws-us-east-1,Ashburn,United States,39.0438,-77.4874,intranet,AWS27501,BIZ123
10.10.10.1,private,aws-us-east-1,Ashburn,United States,39.0438,-77.4874,intranet,AWS69172,OPS456
10.10.10.10,private,aws-us-east-1,Ashburn,United States,39.0438,-77.4874,intranet,AWS15107,DEV789
10.10.10.11,private,aws-us-east-1,Ashburn,United States,39.0438,-77.4874,intranet,AWS63912,DEV456
10.10.10.11,private,aws-us-east-1,Ashburn,United States,39.0438,-77.4874,intranet,AWS16134,OPS456
10.10.10.114,private,aws-us-east-1,Ashburn,United States,39.0438,-77.4874,intranet,AWS52092,BIZ123
10.10.10.123,private,aws-us-east-1,Ashburn,United States,39.0438,-77.4874,intranet,AWS69410,DEV456
10.10.10.123,private,aws-us-east-1,Ashburn,United States,39.0438,-77.4874,intranet,AWS12329,OPS789
10.10.10.129,private,aws-us-east-1,Ashburn,United States,39.0438,-77.4874,intranet,AWS25583,DEV123
10.10.10.149,private,aws-us-east-1,Ashburn,United States,39.0438,-77.4874,intranet,AWS43527,OPS123
10.10.10.186,private,aws-us-east-1,Ashburn,United States,39.0438,-77.4874,intranet,AWS39706,BIZ456
10.10.10.190,private,aws-us-east-1,Ashburn,United States,39.0438,-77.4874,intranet,AWS65706,OPS123
10.10.10.20,private,aws-us-east-1,Ashburn,United States,39.0438,-77.4874,intranet,AWS46888,OPS123
10.10.10.21,private,aws-us-east-1,Ashburn,United States,39.0438,-77.4874,intranet,AWS42861,OPS789
10.10.10.22,private,aws-us-east-1,Ashburn,United States,39.0438,-77.4874,intranet,AWS74170,DEV456
10.10.10.228,private,aws-us-east-1,Ashburn,United States,39.0438,-77.4874,intranet,AWS51414,OPS789
10.10.10.23,private,aws-us-east-1,Ashburn,United States,39.0438,-77.4874,intranet,AWS80563,DEV123
10.10.10.245,private,aws-us-east-1,Ashburn,United States,39.0438,-77.4874,intranet,AWS85072,OPS456
10.10.10.30,private,aws-us-east-1,Ashburn,United States,39.0438,-77.4874,intranet,AWS61080,DEV789
10.10.10.39,private,aws-us-east-1,Ashburn,United States,39.0438,-77.4874,intranet,AWS93436,BIZ789
10.10.10.87,private,aws-us-east-1,Ashburn,United States,39.0438,-77.4874,intranet,AWS12898,BIZ456
10.10.10.87,private,aws-us-east-1,Ashburn,United States,39.0438,-77.4874,intranet,AWS51300,DEV789
10.10.100.254,private,aws-us-east-1,Ashburn,United States,39.0438,-77.4874,intranet,AWS99902,BIZ123
10.10.14.103,private,aws-us-east-1,Ashburn,United States,39.0438,-77.4874,intranet,AWS51604,BIZ123
10.10.14.130,private,aws-us-east-1,Ashburn,United States,39.0438,-77.4874,intranet,AWS30588,DEV456
10.10.15.255,private,aws-us-east-1,Ashburn,United States,39.0438,-77.4874,intranet,AWS64324,BIZ789
10.10.97.3,private,aws-us-east-1,Ashburn,United States,39.0438,-77.4874,intranet,AWS72066,OPS456
10.10.97.5,private,aws-us-east-1,Ashburn,United States,39.0438,-77.4874,intranet,AWS63075,DEV789
10.10.97.6,private,aws-us-east-1,Ashburn,United States,39.0438,-77.4874,intranet,AWS74428,DEV789
10.104.99.22,private,aws-eu-west-2,London,United Kingdom,51.5074,-0.1278,intranet,AWS34882,BIZ123
10.11.26.98,private,aws-us-east-1,Ashburn,United States,39.0438,-77.4874,intranet,AWS14441,BIZ789
10.129.131.146,private,aws-eu-west-2,London,United Kingdom,51.5074,-0.1278,intranet,AWS95652,BIZ789
10.129.6.21,private,aws-eu-west-2,London,United Kingdom,51.5074,-0.1278,intranet,AWS32020,BIZ456
10.129.8.21,private,aws-eu-west-2,London,United Kingdom,51.5074,-0.1278,intranet,AWS94097,BIZ789
10.129.9.148,private,aws-eu-west-2,London,United Kingdom,51.5074,-0.1278,intranet,AWS64785,BIZ456
10.129.9.149,private,aws-eu-west-2,London,United Kingdom,51.5074,-0.1278,intranet,AWS85034,BIZ789
10.155.0.2,private,aws-eu-west-2,London,United Kingdom,51.5074,-0.1278,intranet,AWS97962,OPS123
10.155.10.5,private,aws-eu-west-2,London,United Kingdom,51.5074,-0.1278,intranet,AWS69736,BIZ789
10.155.20.10,private,aws-eu-west-2,London,United Kingdom,51.5074,-0.1278,intranet,AWS13897,BIZ456
10.168.128.193,private,aws-eu-west-2,London,United Kingdom,51.5074,-0.1278,intranet,AWS82327,DEV123
10.18.2.243,private,aws-us-east-1,Ashburn,United States,39.0438,-77.4874,intranet,AWS84987,BIZ123
10.2.1.1,private,aws-us-east-1,Ashburn,United States,39.0438,-77.4874,intranet,AWS65447,BIZ789
10.2.1.102,private,aws-us-east-1,Ashburn,United States,39.0438,-77.4874,intranet,AWS16762,DEV123
10.2.1.102,private,aws-us-east-1,Ashburn,United States,39.0438,-77.4874,intranet,AWS74952,BIZ123
10.2.1.23,private,aws-us-east-1,Ashburn,United States,39.0438,-77.4874,intranet,AWS25027,BIZ456
10.2.1.255,private,aws-us-east-1,Ashburn,United States,39.0438,-77.4874,intranet,AWS90643,BIZ789
10.20.20.1,private,aws-us-east-1,Ashburn,United States,39.0438,-77.4874,intranet,AWS13510,OPS123
10.200.69.130,private,aws-ap-southeast-1,Singapore,Singapore,1.3521,103.8198,intranet,AWS53428,OPS456
10.200.69.65,private,aws-ap-southeast-1,Singapore,Singapore,1.3521,103.8198,intranet,AWS44635,BIZ789
10.200.82.51,private,aws-ap-southeast-1,Singapore,Singapore,1.3521,103.8198,intranet,AWS72661,BIZ123
10.204.70.90,private,aws-ap-southeast-1,Singapore,Singapore,1.3521,103.8198,intranet,AWS26484,DEV123
10.221.100.28,private,aws-ap-southeast-1,Singapore,Singapore,1.3521,103.8198,intranet,AWS45963,OPS789
10.221.19.100,private,aws-ap-southeast-1,Singapore,Singapore,1.3521,103.8198,intranet,AWS72700,BIZ123
10.226.29.74,private,aws-ap-southeast-1,Singapore,Singapore,1.3521,103.8198,intranet,AWS99680,DEV456
10.226.41.226,private,aws-ap-southeast-1,Singapore,Singapore,1.3521,103.8198,intranet,AWS83051,DEV456
10.23.1.14,private,aws-us-east-1,Ashburn,United States,39.0438,-77.4874,intranet,AWS88629,DEV789
10.23.1.42,private,aws-us-east-1,Ashburn,United States,39.0438,-77.4874,intranet,AWS80246,DEV789
10.23.1.52,private,aws-us-east-1,Ashburn,United States,39.0438,-77.4874,intranet,AWS29688,DEV789
10.3.19.255,private,aws-us-east-1,Ashburn,United States,39.0438,-77.4874,intranet,AWS17555,OPS123
10.3.19.31,private,aws-us-east-1,Ashburn,United States,39.0438,-77.4874,intranet,AWS87008,BIZ123
10.3.19.32,private,aws-us-east-1,Ashburn,United States,39.0438,-77.4874,intranet,AWS59504,BIZ456
10.32.110.52,private,aws-us-east-1,Ashburn,United States,39.0438,-77.4874,intranet,AWS28048,OPS789
10.32.110.54,private,aws-us-east-1,Ashburn,United States,39.0438,-77.4874,intranet,AWS58156,OPS789
10.32.110.58,private,aws-us-east-1,Ashburn,United States,39.0438,-77.4874,intranet,AWS97382,OPS123
10.32.110.60,private,aws-us-east-1,Ashburn,United States,39.0438,-77.4874,intranet,AWS89297,OPS123
10.32.110.64,private,aws-us-east-1,Ashburn,United States,39.0438,-77.4874,intranet,AWS37593,OPS789
10.32.110.65,private,aws-us-east-1,Ashburn,United States,39.0438,-77.4874,intranet,AWS65723,OPS456
10.32.110.67,private,aws-us-east-1,Ashburn,United States,39.0438,-77.4874,intranet,AWS39996,OPS123
10.34.12.42,private,aws-us-east-1,Ashburn,United States,39.0438,-77.4874,intranet,AWS98378,BIZ789
10.34.12.43,private,aws-us-east-1,Ashburn,United States,39.0438,-77.4874,intranet,AWS76282,OPS456
10.34.12.44,private,aws-us-east-1,Ashburn,United States,39.0438,-77.4874,intranet,AWS34013,DEV123
10.34.12.48,private,aws-us-east-1,Ashburn,United States,39.0438,-77.4874,intranet,AWS34705,BIZ456
10.34.12.49,private,aws-us-east-1,Ashburn,United States,39.0438,-77.4874,intranet,AWS55744,BIZ789
10.34.12.50,private,aws-us-east-1,Ashburn,United States,39.0438,-77.4874,intranet,AWS32199,OPS123
10.34.12.51,private,aws-us-east-1,Ashburn,United States,39.0438,-77.4874,intranet,AWS23970,DEV456
10.34.12.52,private,aws-us-east-1,Ashburn,United States,39.0438,-77.4874,intranet,AWS47924,DEV123
10.34.12.54,private,aws-us-east-1,Ashburn,United States,39.0438,-77.4874,intranet,AWS24315,OPS123
10.34.12.59,private,aws-us-east-1,Ashburn,United States,39.0438,-77.4874,intranet,AWS10279,DEV123
10.35.40.200,private,aws-us-east-1,Ashburn,United States,39.0438,-77.4874,intranet,AWS10670,DEV789
10.35.40.22,private,aws-us-east-1,Ashburn,United States,39.0438,-77.4874,intranet,AWS15371,DEV123
10.35.40.25,private,aws-us-east-1,Ashburn,United States,39.0438,-77.4874,intranet,AWS91349,BIZ456
10.35.60.100,private,aws-us-east-1,Ashburn,United States,39.0438,-77.4874,intranet,AWS63714,DEV456
10.35.60.72,private,aws-us-east-1,Ashburn,United States,39.0438,-77.4874,intranet,AWS39558,OPS456
10.4.1.30,private,aws-us-east-1,Ashburn,United States,39.0438,-77.4874,intranet,AWS56824,BIZ456
10.4.1.31,private,aws-us-east-1,Ashburn,United States,39.0438,-77.4874,intranet,AWS85681,DEV123
10.4.1.32,private,aws-us-east-1,Ashburn,United States,39.0438,-77.4874,intranet,AWS98251,BIZ789
10.4.1.33,private,aws-us-east-1,Ashburn,United States,39.0438,-77.4874,intranet,AWS16954,BIZ123
10.4.1.34,private,aws-us-east-1,Ashburn,United States,39.0438,-77.4874,intranet,AWS13547,BIZ789
10.4.1.35,private,aws-us-east-1,Ashburn,United States,39.0438,-77.4874,intranet,AWS65879,DEV123
10.4.1.36,private,aws-us-east-1,Ashburn,United States,39.0438,-77.4874,intranet,AWS48665,BIZ456
10.41.132.165,private,aws-us-east-1,Ashburn,United States,39.0438,-77.4874,intranet,AWS93189,OPS456
10.41.132.200,private,aws-us-east-1,Ashburn,United States,39.0438,-77.4874,intranet,AWS34709,OPS123
10.5.1.253,private,aws-us-east-1,Ashburn,United States,39.0438,-77.4874,intranet,AWS29954,BIZ123
10.5.1.255,private,aws-us-east-1,Ashburn,United States,39.0438,-77.4874,intranet,AWS23866,DEV456
10.7.25.1,private,aws-us-east-1,Ashburn,United States,39.0438,-77.4874,intranet,AWS15542,OPS123
10.7.25.101,private,aws-us-east-1,Ashburn,United States,39.0438,-77.4874,intranet,AWS74896,BIZ123
10.8.10.101,private,aws-us-east-1,Ashburn,United States,39.0438,-77.4874,intranet,AWS28004,BIZ123
10.8.10.101,private,aws-us-east-1,Ashburn,United States,39.0438,-77.4874,intranet,AWS69407,OPS123
10.8.10.8,private,aws-us-east-1,Ashburn,United States,39.0438,-77.4874,intranet,AWS33518,DEV123
10.85.64.5,private,aws-eu-west-2,London,United Kingdom,51.5074,-0.1278,intranet,AWS29032,BIZ789
10.87.100.166,private,aws-eu-west-2,London,United Kingdom,51.5074,-0.1278,intranet,AWS97861,BIZ123
10.87.15.189,private,aws-eu-west-2,London,United Kingdom,51.5074,-0.1278,intranet,AWS40449,OPS456
10.87.205.16,private,aws-eu-west-2,London,United Kingdom,51.5074,-0.1278,intranet,AWS31930,DEV456
10.87.205.56,private,aws-eu-west-2,London,United Kingdom,51.5074,-0.1278,intranet,AWS63399,BIZ456
10.87.94.142,private,aws-eu-west-2,London,United Kingdom,51.5074,-0.1278,intranet,AWS39426,OPS123
10.87.94.143,private,aws-eu-west-2,London,United Kingdom,51.5074,-0.1278,intranet,AWS47531,BIZ123
10.87.94.226,private,aws-eu-west-2,London,United Kingdom,51.5074,-0.1278,intranet,AWS93197,BIZ789
104.16.66.50,public,internet,San Francisco,United States,37.7749,-122.4194,Cloudflare Inc.,null,null
109.255.145.11,public,internet,null,null,null,null,null,null,null
158.69.126.5,public,internet,Montreal,Canada,45.5075,-73.5887,OVH SAS,null,null
161.35.152.204,public,internet,New York,United States,40.7128,-74.006,DigitalOcean LLC,null,null
172.16.0.101,private,office_boston,Boston,United States,42.3601,-71.0589,intranet,US91571,null
172.16.0.101,private,office_boston,Boston,United States,42.3601,-71.0589,intranet,US39976,null
172.16.0.140,private,office_boston,Boston,United States,42.3601,-71.0589,intranet,US64168,null
172.16.0.141,private,office_boston,Boston,United States,42.3601,-71.0589,intranet,US95264,null
172.16.0.142,private,office_boston,Boston,United States,42.3601,-71.0589,intranet,US80237,null
172.16.0.143,private,office_boston,Boston,United States,42.3601,-71.0589,intranet,US25616,null
172.16.0.144,private,office_boston,Boston,United States,42.3601,-71.0589,intranet,US60496,null
172.16.0.145,private,office_boston,Boston,United States,42.3601,-71.0589,intranet,US11224,null
172.16.0.146,private,office_boston,Boston,United States,42.3601,-71.0589,intranet,US94085,null
172.16.0.147,private,office_boston,Boston,United States,42.3601,-71.0589,intranet,US48762,null
172.16.0.148,private,office_boston,Boston,United States,42.3601,-71.0589,intranet,US63624,null
172.16.0.149,private,office_boston,Boston,United States,42.3601,-71.0589,intranet,US21792,null
172.16.0.150,private,office_boston,Boston,United States,42.3601,-71.0589,intranet,US27447,null
172.16.0.151,private,office_boston,Boston,United States,42.3601,-71.0589,intranet,US58849,null
172.16.0.152,private,office_boston,Boston,United States,42.3601,-71.0589,intranet,US75102,null
172.16.0.153,private,office_boston,Boston,United States,42.3601,-71.0589,intranet,US78503,null
172.16.0.154,private,office_boston,Boston,United States,42.3601,-71.0589,intranet,US94052,null
172.16.0.155,private,office_boston,Boston,United States,42.3601,-71.0589,intranet,US91644,null
172.16.0.156,private,office_boston,Boston,United States,42.3601,-71.0589,intranet,US94099,null
172.16.0.157,private,office_boston,Boston,United States,42.3601,-71.0589,intranet,US56149,null
172.16.0.174,private,office_boston,Boston,United States,42.3601,-71.0589,intranet,US78098,null
172.16.0.175,private,office_boston,Boston,United States,42.3601,-71.0589,intranet,US82906,null
172.16.0.176,private,office_boston,Boston,United States,42.3601,-71.0589,intranet,US75902,null
172.16.0.177,private,office_boston,Boston,United States,42.3601,-71.0589,intranet,US65927,null
172.16.0.200,private,office_boston,Boston,United States,42.3601,-71.0589,intranet,US96173,null
172.16.0.200,private,office_boston,Boston,United States,42.3601,-71.0589,intranet,US40761,null
172.16.0.253,private,office_boston,Boston,United States,42.3601,-71.0589,intranet,US23859,null
172.16.0.253,private,office_boston,Boston,United States,42.3601,-71.0589,intranet,US21282,null
172.16.0.255,private,office_boston,Boston,United States,42.3601,-71.0589,intranet,US58154,null
172.16.1.140,private,office_boston,Boston,United States,42.3601,-71.0589,intranet,US72719,null
172.16.1.141,private,office_boston,Boston,United States,42.3601,-71.0589,intranet,US81958,null
172.16.1.142,private,office_boston,Boston,United States,42.3601,-71.0589,intranet,US87695,null
172.16.1.143,private,office_boston,Boston,United States,42.3601,-71.0589,intranet,US35399,null
172.16.1.144,private,office_boston,Boston,United States,42.3601,-71.0589,intranet,US89905,null
172.16.1.145,private,office_boston,Boston,United States,42.3601,-71.0589,intranet,US35348,null
172.16.1.146,private,office_boston,Boston,United States,42.3601,-71.0589,intranet,US38191,null
172.16.1.147,private,office_boston,Boston,United States,42.3601,-71.0589,intranet,US78729,null
172.16.1.148,private,office_boston,Boston,United States,42.3601,-71.0589,intranet,US25624,null
172.16.1.149,private,office_boston,Boston,United States,42.3601,-71.0589,intranet,US50715,null
172.16.1.150,private,office_boston,Boston,United States,42.3601,-71.0589,intranet,US76819,null
172.16.1.151,private,office_boston,Boston,United States,42.3601,-71.0589,intranet,US80816,null
172.16.1.152,private,office_boston,Boston,United States,42.3601,-71.0589,intranet,US35938,null
172.16.1.153,private,office_boston,Boston,United States,42.3601,-71.0589,intranet,US57969,null
172.16.1.154,private,office_boston,Boston,United States,42.3601,-71.0589,intranet,US58484,null
172.16.1.155,private,office_boston,Boston,United States,42.3601,-71.0589,intranet,US86004,null
172.16.1.156,private,office_boston,Boston,United States,42.3601,-71.0589,intranet,US64780,null
172.16.1.157,private,office_boston,Boston,United States,42.3601,-71.0589,intranet,US80072,null
172.16.1.174,private,office_boston,Boston,United States,42.3601,-71.0589,intranet,US89113,null
172.16.1.175,private,office_boston,Boston,United States,42.3601,-71.0589,intranet,US73301,null
172.16.1.176,private,office_boston,Boston,United States,42.3601,-71.0589,intranet,US87944,null
172.16.1.177,private,office_boston,Boston,United States,42.3601,-71.0589,intranet,US24775,null
172.16.1.253,private,office_boston,Boston,United States,42.3601,-71.0589,intranet,US12212,null
172.16.1.253,private,office_boston,Boston,United States,42.3601,-71.0589,intranet,US34973,null
172.16.128.154,private,office_boston,Boston,United States,42.3601,-71.0589,intranet,US17984,null
172.16.128.169,private,office_boston,Boston,United States,42.3601,-71.0589,intranet,US18510,null
172.16.128.201,private,office_boston,Boston,United States,42.3601,-71.0589,intranet,US32761,null
172.16.128.202,private,office_boston,Boston,United States,42.3601,-71.0589,intranet,US82130,null
172.16.128.233,private,office_boston,Boston,United States,42.3601,-71.0589,intranet,US75654,null
172.16.128.233,private,office_boston,Boston,United States,42.3601,-71.0589,intranet,US17508,null
172.16.128.51,private,office_boston,Boston,United States,42.3601,-71.0589,intranet,US26005,null
172.16.131.10,private,office_boston,Boston,United States,42.3601,-71.0589,intranet,US84349,null
172.16.133.101,private,office_boston,Boston,United States,42.3601,-71.0589,intranet,US74129,null
172.16.133.109,private,office_boston,Boston,United States,42.3601,-71.0589,intranet,US34554,null
172.16.133.112,private,office_boston,Boston,United States,42.3601,-71.0589,intranet,US42201,null
172.16.133.113,private,office_boston,Boston,United States,42.3601,-71.0589,intranet,US43313,null
172.16.133.113,private,office_boston,Boston,United States,42.3601,-71.0589,intranet,US27350,null
172.16.133.116,private,office_boston,Boston,United States,42.3601,-71.0589,intranet,US81708,null
172.16.133.118,private,office_boston,Boston,United States,42.3601,-71.0589,intranet,US90546,null
172.16.133.120,private,office_boston,Boston,United States,42.3601,-71.0589,intranet,US56678,null
172.16.133.121,private,office_boston,Boston,United States,42.3601,-71.0589,intranet,US29959,null
172.16.133.132,private,office_boston,Boston,United States,42.3601,-71.0589,intranet,US83393,null
172.16.133.153,private,office_boston,Boston,United States,42.3601,-71.0589,intranet,US46025,null
172.16.133.184,private,office_boston,Boston,United States,42.3601,-71.0589,intranet,US55008,null
172.16.133.233,private,office_boston,Boston,United States,42.3601,-71.0589,intranet,US91483,null
172.16.133.233,private,office_boston,Boston,United States,42.3601,-71.0589,intranet,US17525,null
172.16.133.235,private,office_boston,Boston,United States,42.3601,-71.0589,intranet,US47099,null
172.16.133.24,private,office_boston,Boston,United States,42.3601,-71.0589,intranet,US85944,null
172.16.133.28,private,office_boston,Boston,United States,42.3601,-71.0589,intranet,US85678,null
172.16.133.40,private,office_boston,Boston,United States,42.3601,-71.0589,intranet,US35544,null
172.16.133.40,private,office_boston,Boston,United States,42.3601,-71.0589,intranet,US77251,null
172.16.133.41,private,office_boston,Boston,United States,42.3601,-71.0589,intranet,US58515,null
172.16.133.41,private,office_boston,Boston,United States,42.3601,-71.0589,intranet,US17305,null
172.16.133.54,private,office_boston,Boston,United States,42.3601,-71.0589,intranet,US59079,null
172.16.133.54,private,office_boston,Boston,United States,42.3601,-71.0589,intranet,US76915,null
172.16.133.6,private,office_boston,Boston,United States,42.3601,-71.0589,intranet,US17921,null
172.16.133.63,private,office_boston,Boston,United States,42.3601,-71.0589,intranet,US59199,null
172.16.133.73,private,office_boston,Boston,United States,42.3601,-71.0589,intranet,US83886,null
172.16.133.78,private,office_boston,Boston,United States,42.3601,-71.0589,intranet,US50090,null
172.16.133.87,private,office_boston,Boston,United States,42.3601,-71.0589,intranet,US76433,null
172.16.133.87,private,office_boston,Boston,United States,42.3601,-71.0589,intranet,US43135,null
172.16.133.93,private,office_boston,Boston,United States,42.3601,-71.0589,intranet,US81443,null
172.16.139.250,private,office_boston,Boston,United States,42.3601,-71.0589,intranet,US45332,null
172.16.139.250,private,office_boston,Boston,United States,42.3601,-71.0589,intranet,US17439,null
172.16.18.1,private,office_boston,Boston,United States,42.3601,-71.0589,intranet,US68362,null
172.16.18.200,private,office_boston,Boston,United States,42.3601,-71.0589,intranet,US45268,null
172.16.201.13,private,office_boston,Boston,United States,42.3601,-71.0589,intranet,US28856,null
172.16.255.255,private,office_boston,Boston,United States,42.3601,-71.0589,intranet,US22122,null
172.16.42.2,private,office_boston,Boston,United States,42.3601,-71.0589,intranet,US47964,null
172.16.42.6,private,office_boston,Boston,United States,42.3601,-71.0589,intranet,US51777,null
172.16.42.64,private,office_boston,Boston,United States,42.3601,-71.0589,intranet,US18129,null
172.16.86.42,private,office_boston,Boston,United States,42.3601,-71.0589,intranet,US27310,null
172.16.86.6,private,office_boston,Boston,United States,42.3601,-71.0589,intranet,US52050,null
174.37.29.148,public,internet,null,null,null,null,null,null,null
192.168.0.1,private,office_sao_paolo,Sao Paulo,Brazil,-23.5505,-46.6333,intranet,BR60908,null
192.168.0.10,private,office_sao_paolo,Sao Paulo,Brazil,-23.5505,-46.6333,intranet,BR99196,null
192.168.0.100,private,office_sao_paolo,Sao Paulo,Brazil,-23.5505,-46.6333,intranet,BR19384,null
192.168.0.101,private,office_sao_paolo,Sao Paulo,Brazil,-23.5505,-46.6333,intranet,BR55338,null
192.168.0.103,private,office_sao_paolo,Sao Paulo,Brazil,-23.5505,-46.6333,intranet,BR25480,null
192.168.0.105,private,office_sao_paolo,Sao Paulo,Brazil,-23.5505,-46.6333,intranet,BR93675,null
192.168.0.11,private,office_sao_paolo,Sao Paulo,Brazil,-23.5505,-46.6333,intranet,BR65503,null
192.168.0.12,private,office_sao_paolo,Sao Paulo,Brazil,-23.5505,-46.6333,intranet,BR49067,null
192.168.0.126,private,office_sao_paolo,Sao Paulo,Brazil,-23.5505,-46.6333,intranet,BR29036,null
192.168.0.13,private,office_sao_paolo,Sao Paulo,Brazil,-23.5505,-46.6333,intranet,BR50855,null
192.168.0.132,private,office_sao_paolo,Sao Paulo,Brazil,-23.5505,-46.6333,intranet,BR77372,null
192.168.0.134,private,office_sao_paolo,Sao Paulo,Brazil,-23.5505,-46.6333,intranet,BR71119,null
192.168.0.14,private,office_sao_paolo,Sao Paulo,Brazil,-23.5505,-46.6333,intranet,BR97535,null
192.168.0.15,private,office_sao_paolo,Sao Paulo,Brazil,-23.5505,-46.6333,intranet,BR18365,null
192.168.0.16,private,office_sao_paolo,Sao Paulo,Brazil,-23.5505,-46.6333,intranet,BR53908,null
192.168.0.17,private,office_sao_paolo,Sao Paulo,Brazil,-23.5505,-46.6333,intranet,BR10855,null
192.168.0.18,private,office_sao_paolo,Sao Paulo,Brazil,-23.5505,-46.6333,intranet,BR16162,null
192.168.0.19,private,office_sao_paolo,Sao Paulo,Brazil,-23.5505,-46.6333,intranet,BR55921,null
192.168.0.2,private,office_sao_paolo,Sao Paulo,Brazil,-23.5505,-46.6333,intranet,BR34593,null
192.168.0.20,private,office_sao_paolo,Sao Paulo,Brazil,-23.5505,-46.6333,intranet,BR43499,null
192.168.0.21,private,office_sao_paolo,Sao Paulo,Brazil,-23.5505,-46.6333,intranet,BR86621,null
192.168.0.22,private,office_sao_paolo,Sao Paulo,Brazil,-23.5505,-46.6333,intranet,BR17796,null
192.168.0.23,private,office_sao_paolo,Sao Paulo,Brazil,-23.5505,-46.6333,intranet,BR50323,null
192.168.0.24,private,office_sao_paolo,Sao Paulo,Brazil,-23.5505,-46.6333,intranet,BR82891,null
192.168.0.25,private,office_sao_paolo,Sao Paulo,Brazil,-23.5505,-46.6333,intranet,BR89600,null
192.168.0.255,private,office_sao_paolo,Sao Paulo,Brazil,-23.5505,-46.6333,intranet,BR13228,null
192.168.0.26,private,office_sao_paolo,Sao Paulo,Brazil,-23.5505,-46.6333,intranet,BR79412,null
192.168.0.27,private,office_sao_paolo,Sao Paulo,Brazil,-23.5505,-46.6333,intranet,BR71921,null
192.168.0.28,private,office_sao_paolo,Sao Paulo,Brazil,-23.5505,-46.6333,intranet,BR51737,null
192.168.0.29,private,office_sao_paolo,Sao Paulo,Brazil,-23.5505,-46.6333,intranet,BR20145,null
192.168.0.30,private,office_sao_paolo,Sao Paulo,Brazil,-23.5505,-46.6333,intranet,BR35321,null
192.168.0.31,private,office_sao_paolo,Sao Paulo,Brazil,-23.5505,-46.6333,intranet,BR18026,null
192.168.0.32,private,office_sao_paolo,Sao Paulo,Brazil,-23.5505,-46.6333,intranet,BR35011,null
192.168.0.33,private,office_sao_paolo,Sao Paulo,Brazil,-23.5505,-46.6333,intranet,BR27508,null
192.168.0.34,private,office_sao_paolo,Sao Paulo,Brazil,-23.5505,-46.6333,intranet,BR76777,null
192.168.0.35,private,office_sao_paolo,Sao Paulo,Brazil,-23.5505,-46.6333,intranet,BR40809,null
192.168.0.36,private,office_sao_paolo,Sao Paulo,Brazil,-23.5505,-46.6333,intranet,BR82785,null
192.168.0.37,private,office_sao_paolo,Sao Paulo,Brazil,-23.5505,-46.6333,intranet,BR27354,null
192.168.0.38,private,office_sao_paolo,Sao Paulo,Brazil,-23.5505,-46.6333,intranet,BR46358,null
192.168.0.39,private,office_sao_paolo,Sao Paulo,Brazil,-23.5505,-46.6333,intranet,BR61827,null
192.168.0.4,private,office_sao_paolo,Sao Paulo,Brazil,-23.5505,-46.6333,intranet,BR18482,null
192.168.0.40,private,office_sao_paolo,Sao Paulo,Brazil,-23.5505,-46.6333,intranet,BR40488,null
192.168.0.41,private,office_sao_paolo,Sao Paulo,Brazil,-23.5505,-46.6333,intranet,BR16768,null
192.168.0.42,private,office_sao_paolo,Sao Paulo,Brazil,-23.5505,-46.6333,intranet,BR42782,null
192.168.0.43,private,office_sao_paolo,Sao Paulo,Brazil,-23.5505,-46.6333,intranet,BR61477,null
192.168.0.44,private,office_sao_paolo,Sao Paulo,Brazil,-23.5505,-46.6333,intranet,BR81796,null
192.168.0.45,private,office_sao_paolo,Sao Paulo,Brazil,-23.5505,-46.6333,intranet,BR70816,null
192.168.0.46,private,office_sao_paolo,Sao Paulo,Brazil,-23.5505,-46.6333,intranet,BR20495,null
192.168.0.47,private,office_sao_paolo,Sao Paulo,Brazil,-23.5505,-46.6333,intranet,BR62204,null
192.168.0.48,private,office_sao_paolo,Sao Paulo,Brazil,-23.5505,-46.6333,intranet,BR49622,null
192.168.0.49,private,office_sao_paolo,Sao Paulo,Brazil,-23.5505,-46.6333,intranet,BR39275,null
192.168.0.50,private,office_sao_paolo,Sao Paulo,Brazil,-23.5505,-46.6333,intranet,BR87981,null
192.168.0.51,private,office_sao_paolo,Sao Paulo,Brazil,-23.5505,-46.6333,intranet,BR30040,null
192.168.0.52,private,office_sao_paolo,Sao Paulo,Brazil,-23.5505,-46.6333,intranet,BR43966,null
192.168.0.53,private,office_sao_paolo,Sao Paulo,Brazil,-23.5505,-46.6333,intranet,BR75155,null
192.168.0.55,private,office_sao_paolo,Sao Paulo,Brazil,-23.5505,-46.6333,intranet,BR52529,null
192.168.0.56,private,office_sao_paolo,Sao Paulo,Brazil,-23.5505,-46.6333,intranet,BR47383,null
192.168.0.58,private,office_sao_paolo,Sao Paulo,Brazil,-23.5505,-46.6333,intranet,BR92478,null
192.168.0.59,private,office_sao_paolo,Sao Paulo,Brazil,-23.5505,-46.6333,intranet,BR89553,null
192.168.0.6,private,office_sao_paolo,Sao Paulo,Brazil,-23.5505,-46.6333,intranet,BR51226,null
192.168.0.60,private,office_sao_paolo,Sao Paulo,Brazil,-23.5505,-46.6333,intranet,BR51602,null
192.168.0.61,private,office_sao_paolo,Sao Paulo,Brazil,-23.5505,-46.6333,intranet,BR62997,null
192.168.0.62,private,office_sao_paolo,Sao Paulo,Brazil,-23.5505,-46.6333,intranet,BR88487,null
192.168.0.63,private,office_sao_paolo,Sao Paulo,Brazil,-23.5505,-46.6333,intranet,BR82784,null
192.168.0.64,private,office_sao_paolo,Sao Paulo,Brazil,-23.5505,-46.6333,intranet,BR72449,null
192.168.0.65,private,office_sao_paolo,Sao Paulo,Brazil,-23.5505,-46.6333,intranet,BR36907,null
192.168.0.7,private,office_sao_paolo,Sao Paulo,Brazil,-23.5505,-46.6333,intranet,BR59998,null
192.168.0.8,private,office_sao_paolo,Sao Paulo,Brazil,-23.5505,-46.6333,intranet,BR90789,null
192.168.0.9,private,office_sao_paolo,Sao Paulo,Brazil,-23.5505,-46.6333,intranet,BR36323,null
192.168.0.99,private,office_sao_paolo,Sao Paulo,Brazil,-23.5505,-46.6333,intranet,BR71338,null
192.168.1.1,private,office_sao_paolo,Sao Paulo,Brazil,-23.5505,-46.6333,intranet,BR59820,null
192.168.1.10,private,office_sao_paolo,Sao Paulo,Brazil,-23.5505,-46.6333,intranet,BR59095,null
192.168.1.100,private,office_sao_paolo,Sao Paulo,Brazil,-23.5505,-46.6333,intranet,BR10242,null
192.168.1.100,private,office_sao_paolo,Sao Paulo,Brazil,-23.5505,-46.6333,intranet,BR70181,null
192.168.1.101,private,office_sao_paolo,Sao Paulo,Brazil,-23.5505,-46.6333,intranet,BR24503,null
192.168.1.102,private,office_sao_paolo,Sao Paulo,Brazil,-23.5505,-46.6333,intranet,BR50798,null
192.168.1.103,private,office_sao_paolo,Sao Paulo,Brazil,-23.5505,-46.6333,intranet,BR24786,null
192.168.1.104,private,office_sao_paolo,Sao Paulo,Brazil,-23.5505,-46.6333,intranet,BR65475,null
192.168.1.105,private,office_sao_paolo,Sao Paulo,Brazil,-23.5505,-46.6333,intranet,BR53588,null
192.168.1.11,private,office_sao_paolo,Sao Paulo,Brazil,-23.5505,-46.6333,intranet,BR38149,null
192.168.1.11,private,office_sao_paolo,Sao Paulo,Brazil,-23.5505,-46.6333,intranet,BR78379,null
192.168.1.110,private,office_sao_paolo,Sao Paulo,Brazil,-23.5505,-46.6333,intranet,BR12334,null
192.168.1.12,private,office_sao_paolo,Sao Paulo,Brazil,-23.5505,-46.6333,intranet,BR21144,null
192.168.1.12,private,office_sao_paolo,Sao Paulo,Brazil,-23.5505,-46.6333,intranet,BR95481,null
192.168.1.120,private,office_sao_paolo,Sao Paulo,Brazil,-23.5505,-46.6333,intranet,BR38145,null
192.168.1.13,private,office_sao_paolo,Sao Paulo,Brazil,-23.5505,-46.6333,intranet,BR33856,null
192.168.1.130,private,office_sao_paolo,Sao Paulo,Brazil,-23.5505,-46.6333,intranet,BR92572,null
192.168.1.132,private,office_sao_paolo,Sao Paulo,Brazil,-23.5505,-46.6333,intranet,BR62701,null
192.168.1.140,private,office_sao_paolo,Sao Paulo,Brazil,-23.5505,-46.6333,intranet,BR80200,null
192.168.1.142,private,office_sao_paolo,Sao Paulo,Brazil,-23.5505,-46.6333,intranet,BR59883,null
192.168.1.142,private,office_sao_paolo,Sao Paulo,Brazil,-23.5505,-46.6333,intranet,BR68008,null
192.168.1.144,private,office_sao_paolo,Sao Paulo,Brazil,-23.5505,-46.6333,intranet,BR58838,null
192.168.1.199,private,office_sao_paolo,Sao Paulo,Brazil,-23.5505,-46.6333,intranet,BR62090,null
192.168.1.2,private,office_sao_paolo,Sao Paulo,Brazil,-23.5505,-46.6333,intranet,BR71237,null
192.168.1.20,private,office_sao_paolo,Sao Paulo,Brazil,-23.5505,-46.6333,intranet,BR79262,null
192.168.1.200,private,office_sao_paolo,Sao Paulo,Brazil,-23.5505,-46.6333,intranet,BR81526,null
192.168.1.210,private,office_sao_paolo,Sao Paulo,Brazil,-23.5505,-46.6333,intranet,BR71516,null
192.168.1.211,private,office_sao_paolo,Sao Paulo,Brazil,-23.5505,-46.6333,intranet,BR65736,null
192.168.1.219,private,office_sao_paolo,Sao Paulo,Brazil,-23.5505,-46.6333,intranet,BR56170,null
192.168.1.221,private,office_sao_paolo,Sao Paulo,Brazil,-23.5505,-46.6333,intranet,BR17760,null
192.168.1.222,private,office_sao_paolo,Sao Paulo,Brazil,-23.5505,-46.6333,intranet,BR50107,null
192.168.1.23,private,office_sao_paolo,Sao Paulo,Brazil,-23.5505,-46.6333,intranet,BR82929,null
192.168.1.238,private,office_sao_paolo,Sao Paulo,Brazil,-23.5505,-46.6333,intranet,BR49309,null
192.168.1.25,private,office_sao_paolo,Sao Paulo,Brazil,-23.5505,-46.6333,intranet,BR31135,null
192.168.1.254,private,office_sao_paolo,Sao Paulo,Brazil,-23.5505,-46.6333,intranet,BR33868,null
192.168.1.255,private,office_sao_paolo,Sao Paulo,Brazil,-23.5505,-46.6333,intranet,BR87898,null
192.168.1.27,private,office_sao_paolo,Sao Paulo,Brazil,-23.5505,-46.6333,intranet,BR82052,null
192.168.1.3,private,office_sao_paolo,Sao Paulo,Brazil,-23.5505,-46.6333,intranet,BR75657,null
192.168.1.30,private,office_sao_paolo,Sao Paulo,Brazil,-23.5505,-46.6333,intranet,BR56482,null
192.168.1.32,private,office_sao_paolo,Sao Paulo,Brazil,-23.5505,-46.6333,intranet,BR58224,null
192.168.1.33,private,office_sao_paolo,Sao Paulo,Brazil,-23.5505,-46.6333,intranet,BR80294,null
192.168.1.34,private,office_sao_paolo,Sao Paulo,Brazil,-23.5505,-46.6333,intranet,BR30361,null
192.168.1.35,private,office_sao_paolo,Sao Paulo,Brazil,-23.5505,-46.6333,intranet,BR92021,null
192.168.1.4,private,office_sao_paolo,Sao Paulo,Brazil,-23.5505,-46.6333,intranet,BR58486,null
192.168.1.40,private,office_sao_paolo,Sao Paulo,Brazil,-23.5505,-46.6333,intranet,BR71587,null
192.168.1.41,private,office_sao_paolo,Sao Paulo,Brazil,-23.5505,-46.6333,intranet,BR11754,null
192.168.1.5,private,office_sao_paolo,Sao Paulo,Brazil,-23.5505,-46.6333,intranet,BR80071,null
192.168.1.50,private,office_sao_paolo,Sao Paulo,Brazil,-23.5505,-46.6333,intranet,BR16144,null
192.168.1.51,private,office_sao_paolo,Sao Paulo,Brazil,-23.5505,-46.6333,intranet,BR31447,null
192.168.1.53,private,office_sao_paolo,Sao Paulo,Brazil,-23.5505,-46.6333,intranet,BR55571,null
192.168.1.60,private,office_sao_paolo,Sao Paulo,Brazil,-23.5505,-46.6333,intranet,BR12382,null
192.168.1.65,private,office_sao_paolo,Sao Paulo,Brazil,-23.5505,-46.6333,intranet,BR33553,null
192.168.1.68,private,office_sao_paolo,Sao Paulo,Brazil,-23.5505,-46.6333,intranet,BR22271,null
192.168.1.70,private,office_sao_paolo,Sao Paulo,Brazil,-23.5505,-46.6333,intranet,BR69165,null
192.168.1.80,private,office_sao_paolo,Sao Paulo,Brazil,-23.5505,-46.6333,intranet,BR43393,null
192.168.1.90,private,office_sao_paolo,Sao Paulo,Brazil,-23.5505,-46.6333,intranet,BR51362,null
192.168.1.99,private,office_sao_paolo,Sao Paulo,Brazil,-23.5505,-46.6333,intranet,BR30034,null
192.168.10.151,private,office_sao_paolo,Sao Paulo,Brazil,-23.5505,-46.6333,intranet,BR37760,null
192.168.10.193,private,office_sao_paolo,Sao Paulo,Brazil,-23.5505,-46.6333,intranet,BR77177,null
192.168.10.2,private,office_sao_paolo,Sao Paulo,Brazil,-23.5505,-46.6333,intranet,BR35227,null
192.168.10.40,private,office_sao_paolo,Sao Paulo,Brazil,-23.5505,-46.6333,intranet,BR88534,null
192.168.10.41,private,office_sao_paolo,Sao Paulo,Brazil,-23.5505,-46.6333,intranet,BR85817,null
192.168.10.93,private,office_sao_paolo,Sao Paulo,Brazil,-23.5505,-46.6333,intranet,BR53986,null
192.168.10.96,private,office_sao_paolo,Sao Paulo,Brazil,-23.5505,-46.6333,intranet,BR20762,null
192.168.100.1,private,office_sao_paolo,Sao Paulo,Brazil,-23.5505,-46.6333,intranet,BR68372,null
192.168.100.118,private,office_sao_paolo,Sao Paulo,Brazil,-23.5505,-46.6333,intranet,BR78234,null
192.168.100.119,private,office_sao_paolo,Sao Paulo,Brazil,-23.5505,-46.6333,intranet,BR22091,null
192.168.100.255,private,office_sao_paolo,Sao Paulo,Brazil,-23.5505,-46.6333,intranet,BR16481,null
192.168.100.5,private,office_sao_paolo,Sao Paulo,Brazil,-23.5505,-46.6333,intranet,BR94332,null
192.168.105.105,private,office_sao_paolo,Sao Paulo,Brazil,-23.5505,-46.6333,intranet,BR14221,null
192.168.105.110,private,office_sao_paolo,Sao Paulo,Brazil,-23.5505,-46.6333,intranet,BR32795,null
192.168.105.172,private,office_sao_paolo,Sao Paulo,Brazil,-23.5505,-46.6333,intranet,BR90365,null
192.168.107.251,private,office_sao_paolo,Sao Paulo,Brazil,-23.5505,-46.6333,intranet,BR44382,null
192.168.108.13,private,office_sao_paolo,Sao Paulo,Brazil,-23.5505,-46.6333,intranet,BR28895,null
192.168.108.139,private,office_sao_paolo,Sao Paulo,Brazil,-23.5505,-46.6333,intranet,BR12587,null
192.168.108.76,private,office_sao_paolo,Sao Paulo,Brazil,-23.5505,-46.6333,intranet,BR58705,null
192.168.110.131,private,office_sao_paolo,Sao Paulo,Brazil,-23.5505,-46.6333,intranet,BR37993,null
192.168.110.138,private,office_sao_paolo,Sao Paulo,Brazil,-23.5505,-46.6333,intranet,BR28504,null
192.168.111.141,private,office_sao_paolo,Sao Paulo,Brazil,-23.5505,-46.6333,intranet,BR19364,null
192.168.112.12,private,office_sao_paolo,Sao Paulo,Brazil,-23.5505,-46.6333,intranet,BR28628,null
192.168.112.140,private,office_sao_paolo,Sao Paulo,Brazil,-23.5505,-46.6333,intranet,BR22669,null
192.168.112.204,private,office_sao_paolo,Sao Paulo,Brazil,-23.5505,-46.6333,intranet,BR10667,null
192.168.112.75,private,office_sao_paolo,Sao Paulo,Brazil,-23.5505,-46.6333,intranet,BR51599,null
192.168.113.12,private,office_sao_paolo,Sao Paulo,Brazil,-23.5505,-46.6333,intranet,BR27144,null
192.168.113.141,private,office_sao_paolo,Sao Paulo,Brazil,-23.5505,-46.6333,intranet,BR43789,null
192.168.113.75,private,office_sao_paolo,Sao Paulo,Brazil,-23.5505,-46.6333,intranet,BR15026,null
192.168.113.76,private,office_sao_paolo,Sao Paulo,Brazil,-23.5505,-46.6333,intranet,BR29949,null
192.168.114.12,private,office_sao_paolo,Sao Paulo,Brazil,-23.5505,-46.6333,intranet,BR60004,null
192.168.114.203,private,office_sao_paolo,Sao Paulo,Brazil,-23.5505,-46.6333,intranet,BR38320,null
192.168.114.204,private,office_sao_paolo,Sao Paulo,Brazil,-23.5505,-46.6333,intranet,BR52949,null
192.168.114.76,private,office_sao_paolo,Sao Paulo,Brazil,-23.5505,-46.6333,intranet,BR14612,null
192.168.115.12,private,office_sao_paolo,Sao Paulo,Brazil,-23.5505,-46.6333,intranet,BR15497,null
192.168.115.140,private,office_sao_paolo,Sao Paulo,Brazil,-23.5505,-46.6333,intranet,BR27348,null
192.168.115.77,private,office_sao_paolo,Sao Paulo,Brazil,-23.5505,-46.6333,intranet,BR13894,null
192.168.137.129,private,office_sao_paolo,Sao Paulo,Brazil,-23.5505,-46.6333,intranet,BR53568,null
192.168.146.1,private,office_sao_paolo,Sao Paulo,Brazil,-23.5505,-46.6333,intranet,BR18731,null
192.168.16.12,private,office_sao_paolo,Sao Paulo,Brazil,-23.5505,-46.6333,intranet,BR86528,null
192.168.16.141,private,office_sao_paolo,Sao Paulo,Brazil,-23.5505,-46.6333,intranet,BR48887,null
192.168.16.205,private,office_sao_paolo,Sao Paulo,Brazil,-23.5505,-46.6333,intranet,BR41626,null
192.168.16.76,private,office_sao_paolo,Sao Paulo,Brazil,-23.5505,-46.6333,intranet,BR17968,null
192.168.162.22,private,office_sao_paolo,Sao Paulo,Brazil,-23.5505,-46.6333,intranet,BR41602,null
192.168.162.255,private,office_sao_paolo,Sao Paulo,Brazil,-23.5505,-46.6333,intranet,BR86537,null
192.168.162.53,private,office_sao_paolo,Sao Paulo,Brazil,-23.5505,-46.6333,intranet,BR17831,null
192.168.168.140,private,office_sao_paolo,Sao Paulo,Brazil,-23.5505,-46.6333,intranet,BR60340,null
192.168.17.11,private,office_sao_paolo,Sao Paulo,Brazil,-23.5505,-46.6333,intranet,BR97922,null
192.168.17.13,private,office_sao_paolo,Sao Paulo,Brazil,-23.5505,-46.6333,intranet,BR96557,null
192.168.17.205,private,office_sao_paolo,Sao Paulo,Brazil,-23.5505,-46.6333,intranet,BR31945,null
192.168.170.139,private,office_sao_paolo,Sao Paulo,Brazil,-23.5505,-46.6333,intranet,BR19149,null
192.168.170.141,private,office_sao_paolo,Sao Paulo,Brazil,-23.5505,-46.6333,intranet,BR61186,null
192.168.171.12,private,office_sao_paolo,Sao Paulo,Brazil,-23.5505,-46.6333,intranet,BR54075,null
192.168.171.141,private,office_sao_paolo,Sao Paulo,Brazil,-23.5505,-46.6333,intranet,BR93857,null
192.168.172.141,private,office_sao_paolo,Sao Paulo,Brazil,-23.5505,-46.6333,intranet,BR84709,null
192.168.173.12,private,office_sao_paolo,Sao Paulo,Brazil,-23.5505,-46.6333,intranet,BR33525,null
192.168.173.141,private,office_sao_paolo,Sao Paulo,Brazil,-23.5505,-46.6333,intranet,BR86478,null
192.168.174.140,private,office_sao_paolo,Sao Paulo,Brazil,-23.5505,-46.6333,intranet,BR43480,null
192.168.174.204,private,office_sao_paolo,Sao Paulo,Brazil,-23.5505,-46.6333,intranet,BR63535,null
192.168.175.13,private,office_sao_paolo,Sao Paulo,Brazil,-23.5505,-46.6333,intranet,BR53626,null
192.168.179.11,private,office_sao_paolo,Sao Paulo,Brazil,-23.5505,-46.6333,intranet,BR61876,null
192.168.179.141,private,office_sao_paolo,Sao Paulo,Brazil,-23.5505,-46.6333,intranet,BR37693,null
192.168.179.76,private,office_sao_paolo,Sao Paulo,Brazil,-23.5505,-46.6333,intranet,BR85524,null
192.168.18.205,private,office_sao_paolo,Sao Paulo,Brazil,-23.5505,-46.6333,intranet,BR11503,null
192.168.19.157,private,office_sao_paolo,Sao Paulo,Brazil,-23.5505,-46.6333,intranet,BR74624,null
192.168.19.203,private,office_sao_paolo,Sao Paulo,Brazil,-23.5505,-46.6333,intranet,BR33486,null
192.168.19.77,private,office_sao_paolo,Sao Paulo,Brazil,-23.5505,-46.6333,intranet,BR90082,null
192.168.196.235,private,office_sao_paolo,Sao Paulo,Brazil,-23.5505,-46.6333,intranet,BR95678,null
192.168.2.1,private,office_sao_paolo,Sao Paulo,Brazil,-23.5505,-46.6333,intranet,BR16671,null
192.168.2.122,private,office_sao_paolo,Sao Paulo,Brazil,-23.5505,-46.6333,intranet,BR73050,null
192.168.2.16,private,office_sao_paolo,Sao Paulo,Brazil,-23.5505,-46.6333,intranet,BR70151,null
192.168.2.255,private,office_sao_paolo,Sao Paulo,Brazil,-23.5505,-46.6333,intranet,BR47389,null
192.168.20.12,private,office_sao_paolo,Sao Paulo,Brazil,-23.5505,-46.6333,intranet,BR57045,null
192.168.203.3,private,office_sao_paolo,Sao Paulo,Brazil,-23.5505,-46.6333,intranet,BR60045,null
192.168.203.5,private,office_sao_paolo,Sao Paulo,Brazil,-23.5505,-46.6333,intranet,BR30653,null
192.168.21.100,private,office_sao_paolo,Sao Paulo,Brazil,-23.5505,-46.6333,intranet,BR93727,null
192.168.21.12,private,office_sao_paolo,Sao Paulo,Brazil,-23.5505,-46.6333,intranet,BR33860,null
192.168.21.204,private,office_sao_paolo,Sao Paulo,Brazil,-23.5505,-46.6333,intranet,BR31481,null
192.168.21.21,private,office_sao_paolo,Sao Paulo,Brazil,-23.5505,-46.6333,intranet,BR59790,null
192.168.21.255,private,office_sao_paolo,Sao Paulo,Brazil,-23.5505,-46.6333,intranet,BR27181,null
192.168.213.44,private,office_sao_paolo,Sao Paulo,Brazil,-23.5505,-46.6333,intranet,BR64524,null
192.168.22.204,private,office_sao_paolo,Sao Paulo,Brazil,-23.5505,-46.6333,intranet,BR42772,null
192.168.222.1,private,office_sao_paolo,Sao Paulo,Brazil,-23.5505,-46.6333,intranet,BR48727,null
192.168.222.128,private,office_sao_paolo,Sao Paulo,Brazil,-23.5505,-46.6333,intranet,BR51524,null
192.168.222.255,private,office_sao_paolo,Sao Paulo,Brazil,-23.5505,-46.6333,intranet,BR61021,null
192.168.231.5,private,office_sao_paolo,Sao Paulo,Brazil,-23.5505,-46.6333,intranet,BR53410,null
192.168.231.75,private,office_sao_paolo,Sao Paulo,Brazil,-23.5505,-46.6333,intranet,BR33972,null
192.168.244.1,private,office_sao_paolo,Sao Paulo,Brazil,-23.5505,-46.6333,intranet,BR84618,null
192.168.244.128,private,office_sao_paolo,Sao Paulo,Brazil,-23.5505,-46.6333,intranet,BR63607,null
192.168.255.255,private,office_sao_paolo,Sao Paulo,Brazil,-23.5505,-46.6333,intranet,BR52629,null
192.168.3.107,private,office_sao_paolo,Sao Paulo,Brazil,-23.5505,-46.6333,intranet,BR16500,null
192.168.3.123,private,office_sao_paolo,Sao Paulo,Brazil,-23.5505,-46.6333,intranet,BR35911,null
192.168.42.207,private,office_sao_paolo,Sao Paulo,Brazil,-23.5505,-46.6333,intranet,BR67018,null
192.168.42.29,private,office_sao_paolo,Sao Paulo,Brazil,-23.5505,-46.6333,intranet,BR64402,null
192.168.50.50,private,office_sao_paolo,Sao Paulo,Brazil,-23.5505,-46.6333,intranet,BR99516,null
192.168.60.1,private,office_sao_paolo,Sao Paulo,Brazil,-23.5505,-46.6333,intranet,BR47083,null
192.168.60.255,private,office_sao_paolo,Sao Paulo,Brazil,-23.5505,-46.6333,intranet,BR61988,null
192.168.66.33,private,office_sao_paolo,Sao Paulo,Brazil,-23.5505,-46.6333,intranet,BR84755,null
192.168.66.34,private,office_sao_paolo,Sao Paulo,Brazil,-23.5505,-46.6333,intranet,BR71177,null
192.168.7.255,private,office_sao_paolo,Sao Paulo,Brazil,-23.5505,-46.6333,intranet,BR10136,null
192.168.7.61,private,office_sao_paolo,Sao Paulo,Brazil,-23.5505,-46.6333,intranet,BR64111,null
192.168.89.1,private,office_sao_paolo,Sao Paulo,Brazil,-23.5505,-46.6333,intranet,BR43006,null
192.168.89.2,private,office_sao_paolo,Sao Paulo,Brazil,-23.5505,-46.6333,intranet,BR37430,null
192.168.97.140,private,office_sao_paolo,Sao Paulo,Brazil,-23.5505,-46.6333,intranet,BR36530,null
192.168.99.100,private,office_sao_paolo,Sao Paulo,Brazil,-23.5505,-46.6333,intranet,BR65406,null
192.168.99.101,private,office_sao_paolo,Sao Paulo,Brazil,-23.5505,-46.6333,intranet,BR54886,null
192.168.99.101,private,office_sao_paolo,Sao Paulo,Brazil,-23.5505,-46.6333,intranet,BR78722,null
192.168.99.112,private,office_sao_paolo,Sao Paulo,Brazil,-23.5505,-46.6333,intranet,BR44427,null
192.168.99.199,private,office_sao_paolo,Sao Paulo,Brazil,-23.5505,-46.6333,intranet,BR51813,null
192.168.99.255,private,office_sao_paolo,Sao Paulo,Brazil,-23.5505,-46.6333,intranet,BR81444,null
192.168.99.77,private,office_sao_paolo,Sao Paulo,Brazil,-23.5505,-46.6333,intranet,BR45816,null
192.168.99.77,private,office_sao_paolo,Sao Paulo,Brazil,-23.5505,-46.6333,intranet,BR13256,null
198.71.247.91,public,internet,Scottsdale,United States,33.6119,-111.8906,GoDaddy.com LLC,null,null
204.14.235.101,public,internet,Chicago,United States,41.8781,-87.6298,TDS Telecom,null,null
206.33.41.253,public,internet,New York,United States,40.7128,-74.006,Sprint Communications,null,null
208.111.161.254,public,internet,Tempe,United States,33.4255,-111.94,Limelight Networks Inc.,null,null
216.137.33.233,public,internet,Seattle,United States,47.6062,-122.3321,Amazon Technologies Inc.,null,null
216.52.121.204,public,internet,Chicago,United States,41.8781,-87.6298,Steadfast Networks,null,null
23.106.223.174,public,internet,Manassas,United States,38.7509,-77.475,Leaseweb USA Inc.,null,null
35.128.28.51,public,internet,Boardman,United States,45.8399,-119.7006,Amazon.com Inc.,null,null
43.132.239.20,public,internet,Boydton,United States,36.6676,-78.3875,Microsoft Corporation,null,null
45.79.64.234,public,internet,Fremont,United States,37.5483,-121.9886,Linode,null,null
45.81.235.112,public,internet,Frankfurt,Germany,50.1109,8.6821,SYNLINQ,null,null
51.15.60.23,public,internet,Paris,France,48.8566,2.3522,Online S.A.S.,null,null
52.28.38.154,public,internet,Frankfurt,Germany,50.1109,8.6821,Amazon.com Inc.,null,null
52.58.68.165,public,internet,Frankfurt,Germany,50.1109,8.6821,Amazon.com Inc.,null,null
54.240.160.134,public,internet,Ashburn,United States,39.0469,-77.4903,Amazon.com Inc.,null,null
54.241.29.133,public,internet,San Jose,United States,37.3382,-121.8863,Amazon.com Inc.,null,null
61.1.166.170,public,internet,Kunming,China,25.0389,102.7183,China Telecom Yunnan,null,null
72.21.91.121,public,internet,Seattle,United States,47.6062,-122.3321,Amazon.com Inc.,null,null
74.125.226.1,public,internet,null,null,null,null,null,null,null
8.27.243.253,public,internet,null,null,null,null,null,null,null
92.53.91.59,public,internet,null,null,null,null,null,null,null
96.43.146.48,public,internet,null,null,null,null,null,null,null